<?xml version='1.0' encoding='UTF-8'?>
<?xml-stylesheet type="text/xsl" href="rss-style.xsl"?>
<rss xmlns:atom="http://www.w3.org/2005/Atom" xmlns:dc="http://purl.org/dc/elements/1.1/" version="2.0">
  <channel>
    <title>Hacker News - Korean</title>
    <link>https://tang1keke.github.io/hn-summary-and-translate</link>
    <description>Hacker News articles summarized and translated to Korean</description>
    <language>ko</language>
    <lastBuildDate>Wed, 05 Nov 2025 15:24:36 +0000</lastBuildDate>
    <generator>HN RSS Translator</generator>
    <atom:link rel="self" type="application/rss+xml" href="https://tang1keke.github.io/hn-summary-and-translate/rss-ko.xml"/>
    <item>
      <title>방정식에 숨어있는 그림자</title>
      <link>https://gods.art/articles/equation_shadows.html</link>
      <description>&lt;p&gt;\( \frac{x}{x^2+y^2-1} = 0 \)의 그래프 \( \frac{x}{x^2+y^2-1} = 0 \)의 퍼지 그래프 기존 그래프에서는 Shadow Circle이 보이지 않습니다. 7y) \), 기존 그래프와 퍼지 그래프 모두: \( y=4 sin(x)+ sin(2.7y) \) 퍼지 그래프 \( y=4 sin(x)+ sin(2.&lt;/p&gt;
&lt;p&gt;&lt;strong&gt;Original:&lt;/strong&gt; The Shadows Lurking in the Equations&lt;/p&gt;
&lt;p&gt;&lt;a href='https://gods.art/articles/equation_shadows.html'&gt;Read more&lt;/a&gt;&lt;/p&gt;</description>
      <guid isPermaLink="true">https://gods.art/articles/equation_shadows.html</guid>
      <pubDate>Wed, 05 Nov 2025 14:21:13 +0000</pubDate>
      <comments>https://news.ycombinator.com/item?id=45823141</comments>
    </item>
    <item>
      <title>보다 안전한 브라우저를 위해 XSLT 제거</title>
      <link>https://developer.chrome.com/docs/web-platform/deprecating-xslt</link>
      <description>&lt;p&gt;XSLT 처리 명령(예: &lt;. XSLT는 모든 사용자에 대해 비활성화됩니다. XSLT 언어 자체는 XSLT 2 릴리스와 함께 계속 발전했습니다.&lt;/p&gt;
&lt;p&gt;&lt;strong&gt;Original:&lt;/strong&gt; Removing XSLT for a more secure browser&lt;/p&gt;
&lt;p&gt;&lt;a href='https://developer.chrome.com/docs/web-platform/deprecating-xslt'&gt;Read more&lt;/a&gt;&lt;/p&gt;</description>
      <guid isPermaLink="true">https://developer.chrome.com/docs/web-platform/deprecating-xslt</guid>
      <pubDate>Wed, 05 Nov 2025 14:14:23 +0000</pubDate>
      <comments>https://news.ycombinator.com/item?id=45823059</comments>
    </item>
    <item>
      <title>eBPF 허점: 송신 트래픽에 XDP 사용</title>
      <link>https://loopholelabs.io/blog/xdp-for-egress-traffic</link>
      <description>&lt;p&gt;XDP는 수신 시 패킷만 처리합니다. - 이는 호스트 커널에 의한 송신 트래픽으로 간주됩니다. 트래픽 제어가 충분하지 않은 이유 송신 패킷을 처리하는 데 널리 사용되는 방법은 수신 및 송신 모두에서 패킷 처리를 허용하는 또 다른 eBPF 기반 메커니즘인 트래픽 제어(TC)입니다.&lt;/p&gt;
&lt;p&gt;&lt;strong&gt;Original:&lt;/strong&gt; An eBPF Loophole: Using XDP for Egress Traffic&lt;/p&gt;
&lt;p&gt;&lt;a href='https://loopholelabs.io/blog/xdp-for-egress-traffic'&gt;Read more&lt;/a&gt;&lt;/p&gt;</description>
      <guid isPermaLink="true">https://loopholelabs.io/blog/xdp-for-egress-traffic</guid>
      <pubDate>Tue, 04 Nov 2025 16:26:09 +0000</pubDate>
      <comments>https://news.ycombinator.com/item?id=45812756</comments>
    </item>
    <item>
      <title>빛나는 컴퓨터</title>
      <link>https://radiant.computer</link>
      <description>&lt;p&gt;하드웨어부터 소프트웨어까지 완전히 개방되어 있습니다. Radiant는 모든 사람이 접근할 수 있도록 설계되었습니다. Radiant는 개인용 컴퓨팅 분야에서 진행 중인 연구 프로젝트입니다.&lt;/p&gt;
&lt;p&gt;&lt;strong&gt;Original:&lt;/strong&gt; Radiant Computer&lt;/p&gt;
&lt;p&gt;&lt;a href='https://radiant.computer'&gt;Read more&lt;/a&gt;&lt;/p&gt;</description>
      <guid isPermaLink="true">https://radiant.computer</guid>
      <pubDate>Wed, 05 Nov 2025 13:22:35 +0000</pubDate>
      <comments>https://news.ycombinator.com/item?id=45822559</comments>
    </item>
    <item>
      <title>QUIC를 위한 P2P 비전(2024)</title>
      <link>https://seemann.io/posts/2024-10-26---p2p-quic/</link>
      <description>&lt;p&gt;간단히 말해서, STUN 클라이언트는 STUN 서버에 "바인딩 요청"을 보냅니다. 각 호스트는 선택한 주소에서 페어링된 주소로 STUN 바인딩 요청을 보내고 피어로부터 수신할 수 있는 STUN 요청에 응답하려고 시도합니다. 그러면 이 서버는 두 피어 간에 트래픽을 릴레이할 수 있습니다.&lt;/p&gt;
&lt;p&gt;&lt;strong&gt;Original:&lt;/strong&gt; A P2P Vision for QUIC (2024)&lt;/p&gt;
&lt;p&gt;&lt;a href='https://seemann.io/posts/2024-10-26---p2p-quic/'&gt;Read more&lt;/a&gt;&lt;/p&gt;</description>
      <guid isPermaLink="true">https://seemann.io/posts/2024-10-26---p2p-quic/</guid>
      <pubDate>Wed, 05 Nov 2025 14:06:22 +0000</pubDate>
      <comments>https://news.ycombinator.com/item?id=45822982</comments>
    </item>
    <item>
      <title>iOS 26.2, 규제 기한보다 앞서 일본에서 타사 앱 스토어 허용</title>
      <link>https://www.macrumors.com/2025/11/05/ios-26-2-third-party-app-stores-japan/</link>
      <description>&lt;p&gt;2024년 6월, 일본 의회는 Apple이 iPhone에서 타사 앱 스토어와 결제 서비스 제공업체를 허용하도록 요구하는 법안을 승인하고 제정했습니다. 보다 최근인 2025년 8월에 일본 공정거래위원회는 모바일 소프트웨어 경쟁법 지침을 제정했습니다. 새로운 지침에 따라 Apple 및 Google과 같은 플랫폼 사업자는 모바일 운영 체제에서 대체 앱 스토어 및 결제 시스템의 가용성을 차단하거나 제한하는 것이 금지됩니다.&lt;/p&gt;
&lt;p&gt;&lt;strong&gt;Original:&lt;/strong&gt; iOS 26.2 to allow third-party app stores in Japan ahead of regulatory deadline&lt;/p&gt;
&lt;p&gt;&lt;a href='https://www.macrumors.com/2025/11/05/ios-26-2-third-party-app-stores-japan/'&gt;Read more&lt;/a&gt;&lt;/p&gt;</description>
      <guid isPermaLink="true">https://www.macrumors.com/2025/11/05/ios-26-2-third-party-app-stores-japan/</guid>
      <pubDate>Wed, 05 Nov 2025 12:51:44 +0000</pubDate>
      <comments>https://news.ycombinator.com/item?id=45822302</comments>
    </item>
    <item>
      <title>Carice TC2 – 완전 아날로그 전기 자동차</title>
      <link>https://www.caricecars.com/</link>
      <guid isPermaLink="true">https://www.caricecars.com/</guid>
      <pubDate>Wed, 05 Nov 2025 14:25:36 +0000</pubDate>
      <comments>https://news.ycombinator.com/item?id=45823186</comments>
    </item>
    <item>
      <title>Pied Piper(2020) 뒤에 숨은 암울한 진실</title>
      <link>https://www.bbc.com/travel/article/20200902-the-grim-truth-behind-the-pied-piper</link>
      <description>&lt;p&gt;Pied Piper 뒤에 숨은 암울한 진실3 2020년 9월ShareSaveRaphael Kadushin특집 특파원ShareSaveKate Greenawayduncan1890/Getty Images 그의 플루트에 매료된 하멜린의 고정된 아이들은 파이퍼를 따라 마을 밖으로 나갔습니다. (제공: Kate Greenawayduncan1890/Getty Images) 그림 형제와 로버트 브라우닝과 같은 작가들이 Pied를 형성했을 수 있습니다. 파이퍼의 전설을 예술로 승화시켰으나 알고 보니 이 이야기는 실제 역사적 사건을 바탕으로 한 것일 가능성이 높습니다. 하멜른 박물관은 건전하고 가벼운 Pied Piper 재연을 제공합니다. 현지 배우들이 여름 동안 야외 Pied Piper 연극을 선보입니다. 기념품 가게에서는 쥐에서 영감을 얻은 기념품을 판매합니다. 원한다면 Pied Piper 티셔츠, 냉장고 자석, 머그잔, 피리 등을 가지고 집에 갈 수 있습니다.&lt;/p&gt;
&lt;p&gt;&lt;strong&gt;Original:&lt;/strong&gt; The grim truth behind the Pied Piper (2020)&lt;/p&gt;
&lt;p&gt;&lt;a href='https://www.bbc.com/travel/article/20200902-the-grim-truth-behind-the-pied-piper'&gt;Read more&lt;/a&gt;&lt;/p&gt;</description>
      <guid isPermaLink="true">https://www.bbc.com/travel/article/20200902-the-grim-truth-behind-the-pied-piper</guid>
      <pubDate>Wed, 05 Nov 2025 12:21:39 +0000</pubDate>
      <comments>https://news.ycombinator.com/item?id=45822071</comments>
    </item>
    <item>
      <title>Michael Burry가 Nvidia와 Palantir를 상대로 두 번의 베팅으로 돌아왔습니다.</title>
      <link>https://www.cnn.com/2025/11/05/business/nvidia-palantir-michael-burry-stock</link>
      <description>&lt;p&gt;최근 몇 달 동안 기술 및 AI 주식이 시장을 주도했습니다. 그는 버리의 발언이 우려를 가중시킨 것 같다고 말했습니다. Burry는 "The Big Short" 이후 몇 년 동안 시장에 대해 공개적으로 언급했습니다.&lt;/p&gt;
&lt;p&gt;&lt;strong&gt;Original:&lt;/strong&gt; Michael Burry is back with two bets against Nvidia and Palantir&lt;/p&gt;
&lt;p&gt;&lt;a href='https://www.cnn.com/2025/11/05/business/nvidia-palantir-michael-burry-stock'&gt;Read more&lt;/a&gt;&lt;/p&gt;</description>
      <guid isPermaLink="true">https://www.cnn.com/2025/11/05/business/nvidia-palantir-michael-burry-stock</guid>
      <pubDate>Wed, 05 Nov 2025 14:38:27 +0000</pubDate>
      <comments>https://news.ycombinator.com/item?id=45823313</comments>
    </item>
    <item>
      <title>루이빌 공항 인근 UPS 비행기 추락</title>
      <link>https://avherald.com/h?article=52f5748f&amp;opt=0</link>
      <description>&lt;p&gt;충돌: 2025년 11월 4일 루이빌의 UPS MD11, 이륙 시 화염 폭발 The Aviation Herald 최종 업데이트: 2025년 11월 5일 수요일 14:28Z32135 사용 가능한 기사1994년 3월 23일부터 2025년 11월 4일까지의 이벤트 www. 4일 켄터키주 루이빌 무하마드 알리 국제공항을 출발한 뒤. SDF 11/077 SDF RWY 17L/35R CLSD 2511050624-2511080300Metars:KSDF 050056Z 15005KT 10SM SCT026 SCT250 13/05 A3020 RMK AO2 SLP227 FU SCT026 T01280050=KSDF 050028Z 15005KT 10SM SCT026 BKN250 13/05 A3020 RMK AO2 FU SCT026 T01330050=KSDF 042356Z 14004KT 10SM FEW022 BKN026 BKN250 14/06 A3021 RMK AO2 SLP229 FU BKN026 T01390056 10183 20133 56007=KSDF 042303Z 16008KT 10SM FEW021 BKN028 BKN032 BKN250 16/05 A3021 RMK AO2 FU BKN028 T01560050=KSDF 042256Z 17006KT 10SM SCT032 BKN250 16/05 A3021 RMK AO2 SLP230 FU SCT032 T01560050=KSDF 042156Z 12006KT 10SM SCT200 BKN250 17/05 A3022 RMK AO2 SLP233 T01670050=KSDF 042056Z 15006KT 10SM FEW200 BKN250 17/04 A3023 RMK AO2 SLP237 T01720044 56028=KSDF 041956Z 14006KT 10SM FEW200 BKN250 18/04 A3025 RMK AO2 SLP241 T01780044=KSDF 041856Z 15007KT 10SM FEW200 BKN250 18/02 A3028 RMK AO2 SLP253 T01780022=KSDF 041756Z 17008KT 10SM FEW200 BKN250 17/02 A3031 RMK AO2 SLP264 T01670022 10167 20033 58028=초기 충격 CCTV 녹화:https://www.&lt;/p&gt;
&lt;p&gt;&lt;strong&gt;Original:&lt;/strong&gt; UPS plane crashes near Louisville airport&lt;/p&gt;
&lt;p&gt;&lt;a href='https://avherald.com/h?article=52f5748f&amp;opt=0'&gt;Read more&lt;/a&gt;&lt;/p&gt;</description>
      <guid isPermaLink="true">https://avherald.com/h?article=52f5748f&amp;opt=0</guid>
      <pubDate>Tue, 04 Nov 2025 23:10:53 +0000</pubDate>
      <comments>https://news.ycombinator.com/item?id=45816963</comments>
    </item>
    <item>
      <title>뉴욕 스마트폰 금지로 인해 점심 시간이 다시 시끄러워졌습니다</title>
      <link>https://gothamist.com/news/ny-smartphone-ban-has-made-lunch-loud-again</link>
      <description>&lt;p&gt;학생들은 또한 반 친구들이 실제 책을 더 많이 읽는 것을 보았다고 말했습니다. "Tripathi는 사람들이 책을 더 많이 읽고 교실 토론이 더욱 활발해진 것이 좋다고 말했습니다. 학생들은 기존 방식대로 통과하는 등 경계를 넓힐 수 있는 다른 방법을 찾았다고 말했습니다.&lt;/p&gt;
&lt;p&gt;&lt;strong&gt;Original:&lt;/strong&gt; NY Smartphone Ban Has Made Lunch Loud Again&lt;/p&gt;
&lt;p&gt;&lt;a href='https://gothamist.com/news/ny-smartphone-ban-has-made-lunch-loud-again'&gt;Read more&lt;/a&gt;&lt;/p&gt;</description>
      <guid isPermaLink="true">https://gothamist.com/news/ny-smartphone-ban-has-made-lunch-loud-again</guid>
      <pubDate>Wed, 05 Nov 2025 13:20:16 +0000</pubDate>
      <comments>https://news.ycombinator.com/item?id=45822539</comments>
    </item>
    <item>
      <title>코스모스: 자율적 발견을 위한 AI 과학자</title>
      <link>https://arxiv.org/abs/2511.02824</link>
      <description>&lt;p&gt;) 연결된 문서 연결된 문서 토글(연결된 문서란 무엇입니까?) 리트맵 토글 리트맵(리트맵이란 무엇입니까?) 코드에 대한 링크 Toggle Papers with Code(페이퍼 위 코드란 무엇입니까?&lt;/p&gt;
&lt;p&gt;&lt;strong&gt;Original:&lt;/strong&gt; Kosmos: An AI Scientist for Autonomous Discovery&lt;/p&gt;
&lt;p&gt;&lt;a href='https://arxiv.org/abs/2511.02824'&gt;Read more&lt;/a&gt;&lt;/p&gt;</description>
      <guid isPermaLink="true">https://arxiv.org/abs/2511.02824</guid>
      <pubDate>Wed, 05 Nov 2025 14:43:26 +0000</pubDate>
      <comments>https://news.ycombinator.com/item?id=45823358</comments>
    </item>
    <item>
      <title>탁월한 장수와 관련된 낙관주의</title>
      <link>https://www.pnas.org/doi/10.1073/pnas.1900712116</link>
      <guid isPermaLink="true">https://www.pnas.org/doi/10.1073/pnas.1900712116</guid>
      <pubDate>Wed, 05 Nov 2025 13:16:58 +0000</pubDate>
      <comments>https://news.ycombinator.com/item?id=45822513</comments>
    </item>
    <item>
      <title>Gnome Mutter는 이제 "전체 X11 백엔드를 완전히 삭제합니다"</title>
      <link>https://www.phoronix.com/news/GNOME-Mutter-Drops-X11</link>
      <description>&lt;p&gt;GNOME Mutter는 이제 "전체 X11 백엔드를 완전히 삭제합니다"라고 Michael Larabel이 GNOME에서 2025년 11월 5일 오전 8시 15분(EST)에 작성했습니다. 25 댓글 GNOME Mutter로의 병합이 마침내 발생하여 X11 백엔드를 "완전히 삭제"하여 GNOME을 Wayland 기반 환경에만 엄격하게 집중하게 만들었습니다. GNOME 50은 XWayland 클라이언트(앱/게임)를 계속 지원하지만 앞으로는 Wayland 기반 데스크톱 세션에 대해서만 엄격하게 지원할 예정입니다.&lt;/p&gt;
&lt;p&gt;&lt;strong&gt;Original:&lt;/strong&gt; Gnome Mutter Now "Completely Drops the Whole X11 Back End"&lt;/p&gt;
&lt;p&gt;&lt;a href='https://www.phoronix.com/news/GNOME-Mutter-Drops-X11'&gt;Read more&lt;/a&gt;&lt;/p&gt;</description>
      <guid isPermaLink="true">https://www.phoronix.com/news/GNOME-Mutter-Drops-X11</guid>
      <pubDate>Wed, 05 Nov 2025 14:24:15 +0000</pubDate>
      <comments>https://news.ycombinator.com/item?id=45823162</comments>
    </item>
  </channel>
</rss>
